0 AYAME 2 (ECS-2)
1 11715U 80018A   13287.80846449 -.00000128  00000-0  00000+0 0  7007
2 11715 008.5928 047.5445 4378079 296.1455 024.4801 01.75490890153784
0 AYAME 2 (ECS-2)
1 11715U 80018A   13294.07791072 -.00000125  00000-0  00000+0 0  7013
2 11715 008.5978 047.0717 4378774 297.1029 025.2502 01.75490473153892
0 AYAME 2 (ECS-2)
1 11715U 80018A   13294.60379595 -.00000126  00000-0  00000+0 0  7026
2 11715 008.5996 047.0351 4377986 297.1683 357.4940 01.75490670153903
